[{"OBJECT_NAME":"STARLINK-32551","OBJECT_ID":"2024-225D","EPOCH":"2026-03-09T16:03:04.945536","MEAN_MOTION":14.98326828,"ECCENTRICITY":0.00026635,"INCLINATION":70.0041,"RA_OF_ASC_NODE":164.4454,"ARG_OF_PERICENTER":277.7203,"MEAN_ANOMALY":82.3654,"EPHEMERIS_TYPE":0,"CLASSIFICATION_TYPE":"U","NORAD_CAT_ID":62166,"ELEMENT_SET_NO":999,"REV_AT_EPOCH":6987,"BSTAR":0.00042814672,"MEAN_MOTION_DOT":5.019e-5,"MEAN_MOTION_DDOT":0},{"OBJECT_NAME":"KORSAT-2","OBJECT_ID":"2024-247A","EPOCH":"2026-03-09T09:51:24.769440","MEAN_MOTION":14.99271316,"ECCENTRICITY":0.00097734,"INCLINATION":45.4085,"RA_OF_ASC_NODE":225.0391,"ARG_OF_PERICENTER":57.7708,"MEAN_ANOMALY":302.4117,"EPHEMERIS_TYPE":0,"CLASSIFICATION_TYPE":"U","NORAD_CAT_ID":62377,"ELEMENT_SET_NO":999,"REV_AT_EPOCH":6659,"BSTAR":0.00043497982,"MEAN_MOTION_DOT":5.163e-5,"MEAN_MOTION_DDOT":0}]
