STARLINK-32551          
1 62166U 24225D   26068.66880724  .00005019  00000+0  42815-3 0  9996
2 62166  70.0041 164.4454 0002664 277.7203  82.3654 14.98326828 69878
KORSAT-2                
1 62377U 24247A   26068.41070335  .00005163  00000+0  43498-3 0  9994
2 62377  45.4085 225.0391 0009773  57.7708 302.4117 14.99271316 66592
